NORAD_CAT_ID,OBJECT_NAME,OBJECT_TYPE,EPOCH,MEAN_MOTION,ECCENTRICITY,INCLINATION,RA_OF_ASC_NODE,ARG_OF_PERICENTER,MEAN_ANOMALY,BSTAR,MEAN_MOTION_DOT,MEAN_MOTION_DDOT,TLE_LINE0,TLE_LINE1,TLE_LINE2,SEMIMAJOR_AXIS,PERIOD,APOGEE,PERIGEE,DECAYED
52558.0,STARLINK-3954,PAYLOAD,2023-05-16 00:14:28,15.08834863,0.0001284,53.2182,57.0446,112.0417,248.0711,8.8466e-05,1.12e-05,0.0,0 STARLINK-3954,1 52558U 22051AB  23136.01005775  .00001120  00000-0  88466-4 0  9995,2 52558  53.2182  57.0446 0001284 112.0417 248.0711 15.08834863 56353,6917.896,95.438,540.649,538.873,0.0
52558.0,STARLINK-3954,PAYLOAD,2023-05-16 19:19:06,15.08837341,0.0001211,53.218,53.4749,107.6201,252.4924,5.2446e-05,5.47e-06,0.0,0 STARLINK-3954,1 52558U 22051AB  23136.80494022  .00000547  00000-0  52446-4 0  9990,2 52558  53.2180  53.4749 0001211 107.6201 252.4924 15.08837341 56403,6917.889,95.438,540.591,538.916,0.0
52558.0,STARLINK-3954,PAYLOAD,2023-05-17 01:40:39,15.08837869,0.0001216,53.2177,52.2845,104.8966,255.2161,4.8097e-05,4.78e-06,0.0,0 STARLINK-3954,1 52558U 22051AB  23137.06990034  .00000478  00000-0  48097-4 0  9993,2 52558  53.2177  52.2845 0001216 104.8966 255.2161 15.08837869 56516,6917.887,95.438,540.593,538.911,0.0
52558.0,STARLINK-3954,PAYLOAD,2023-05-17 03:16:02,15.08840717,0.0001242,53.2179,51.986,101.2015,258.9117,6.6674e-05,7.73e-06,0.0,0 STARLINK-3954,1 52558U 22051AB  23137.13613795  .00000773  00000-0  66674-4 0  9996,2 52558  53.2179  51.9860 0001242 101.2015 258.9117 15.08840717 56456,6917.878,95.438,540.602,538.884,0.0
52558.0,STARLINK-3954,PAYLOAD,2023-05-18 01:31:26,15.08839254,0.0001292,53.2184,47.8235,99.4136,260.7002,5.6507e-05,6.12e-06,0.0,0 STARLINK-3954,1 52558U 22051AB  23138.06350026  .00000612  00000-0  56507-4 0  9990,2 52558  53.2184  47.8235 0001292  99.4136 260.7002 15.08839254 56592,6917.883,95.438,540.641,538.854,0.0
52558.0,STARLINK-3954,PAYLOAD,2023-05-18 17:25:17,15.08841509,0.000129,53.2184,44.8498,96.1559,263.958,4.057e-05,3.58e-06,0.0,0 STARLINK-3954,1 52558U 22051AB  23138.72589935  .00000358  00000-0  40570-4 0  9996,2 52558  53.2184  44.8498 0001290  96.1559 263.9580 15.08841509 56762,6917.876,95.437,540.633,538.848,0.0
52558.0,STARLINK-3954,PAYLOAD,2023-05-19 02:57:36,15.08847387,0.0001271,53.2182,43.0652,91.0222,269.0916,7.9423e-05,9.77e-06,0.0,0 STARLINK-3954,1 52558U 22051AB  23139.12333407  .00000977  00000-0  79423-4 0  9998,2 52558  53.2182  43.0652 0001271  91.0222 269.0916 15.08847387 56820,6917.858,95.437,540.602,538.844,0.0
52558.0,STARLINK-3954,PAYLOAD,2023-05-19 22:02:14,15.08841156,0.0001214,53.2179,39.4959,89.2396,270.8735,-8.0065e-06,-4.15e-06,0.0,0 STARLINK-3954,1 52558U 22051AB  23139.91822006 -.00000415  00000-0 -80065-5 0  9997,2 52558  53.2179  39.4959 0001214  89.2396 270.8735 15.08841156 56875,6917.877,95.437,540.582,538.902,0.0
52558.0,STARLINK-3954,PAYLOAD,2023-05-19 23:37:37,15.08803077,0.000129,53.2178,39.1983,104.0412,256.0724,0.00050908,7.815e-05,0.0,0 STARLINK-3954,1 52558U 22051AB  23139.98446366  .00007815  00000-0  50908-3 0  9995,2 52558  53.2178  39.1983 0001290 104.0412 256.0724 15.08803077 56950,6917.993,95.44,540.751,538.966,0.0
52558.0,STARLINK-3954,PAYLOAD,2023-05-20 17:06:51,15.08850284,0.0001238,53.2179,35.9269,91.3411,268.7723,4.4145e-05,4.15e-06,0.0,0 STARLINK-3954,1 52558U 22051AB  23140.71309094  .00000415  00000-0  44145-4 0  9990,2 52558  53.2179  35.9269 0001238  91.3411 268.7723 15.08850284 57065,6917.849,95.437,540.57,538.858,0.0
52558.0,STARLINK-3954,PAYLOAD,2023-05-20 20:17:36,15.08853341,0.0001266,53.2178,35.3327,90.6961,269.4176,7.79e-05,9.53e-06,0.0,0 STARLINK-3954,1 52558U 22051AB  23140.84556706  .00000953  00000-0  77900-4 0  9990,2 52558  53.2178  35.3327 0001266  90.6961 269.4176 15.08853341 57018,6917.84,95.437,540.58,538.829,0.0
52558.0,STARLINK-3954,PAYLOAD,2023-05-21 02:39:08,15.08862328,0.00012,53.2177,34.1436,80.8645,279.2483,0.00014332,1.995e-05,0.0,0 STARLINK-3954,1 52558U 22051AB  23141.11051751  .00001995  00000-0  14332-3 0  9997,2 52558  53.2177  34.1436 0001200  80.8645 279.2483 15.08862328 57120,6917.812,95.436,540.507,538.847,0.0
52558.0,STARLINK-3954,PAYLOAD,2023-05-21 16:57:39,15.0882532,0.0001106,53.2176,31.4684,77.508,282.6036,-0.00010922,-2.025e-05,0.0,0 STARLINK-3954,1 52558U 22051AB  23141.70671081 -.00002025  00000-0 -10922-3 0  9994,2 52558  53.2176  31.4684 0001106  77.5080 282.6036 15.08825320 57218,6917.925,95.438,540.555,539.025,0.0
52558.0,STARLINK-3954,PAYLOAD,2023-05-21 20:08:26,15.08824892,0.0001,53.2177,30.8744,93.0221,267.0886,-0.00011435,-2.106e-05,0.0,0 STARLINK-3954,1 52558U 22051AB  23141.83919182 -.00002106  00000-0 -11435-3 0  9995,2 52558  53.2177  30.8744 0001000  93.0221 267.0886 15.08824892 57169,6917.927,95.439,540.483,539.1,0.0
52558.0,STARLINK-3954,PAYLOAD,2023-05-22 02:29:58,15.08824877,0.000115,53.2181,29.6831,94.1261,265.9863,-9.7336e-05,-1.836e-05,0.0,0 STARLINK-3954,1 52558U 22051AB  23142.10415407 -.00001836  00000-0 -97336-4 0  9991,2 52558  53.2181  29.6831 0001150  94.1261 265.9863 15.08824877 57209,6917.927,95.439,540.587,538.996,0.0
52558.0,STARLINK-3954,PAYLOAD,2023-05-22 19:59:12,15.08846734,0.0001093,53.2188,26.4121,89.6559,270.4558,-3.4664e-06,-3.43e-06,0.0,0 STARLINK-3954,1 52558U 22051AB  23142.83278080 -.00000343  00000-0 -34664-5 0  9993,2 52558  53.2188  26.4121 0001093  89.6559 270.4558 15.08846734 57318,6917.86,95.437,540.481,538.969,0.0
52558.0,STARLINK-3954,PAYLOAD,2023-05-23 02:20:44,15.08849824,0.0001129,53.2179,25.2225,92.2038,267.9083,0.00017374,2.479e-05,0.0,0 STARLINK-3954,1 52558U 22051AB  23143.09773920  .00002479  00000-0  17374-3 0  9992,2 52558  53.2179  25.2225 0001129  92.2038 267.9083 15.08849824 57421,6917.85,95.437,540.496,538.934,0.0
52558.0,STARLINK-3954,PAYLOAD,2023-05-23 23:00:46,15.08836659,0.0001083,53.2176,21.3581,91.7343,268.3773,0.00028103,4.187e-05,0.0,0 STARLINK-3954,1 52558U 22051AB  23143.95887012  .00004187  00000-0  28103-3 0  9995,2 52558  53.2176  21.3581 0001083  91.7343 268.3773 15.08836659 57481,6917.891,95.438,540.505,539.006,0.0
52558.0,STARLINK-3954,PAYLOAD,2023-05-24 02:11:32,15.08841319,0.0001119,53.2178,20.763,89.5819,270.5302,0.00033511,5.05e-05,0.0,0 STARLINK-3954,1 52558U 22051AB  23144.09134907  .00005050  00000-0  33511-3 0  9998,2 52558  53.2178  20.7630 0001119  89.5819 270.5302 15.08841319 57576,6917.876,95.437,540.515,538.967,0.0
52558.0,STARLINK-3954,PAYLOAD,2023-05-25 21:06:57,15.08844309,0.0001211,53.2173,12.7334,96.7375,263.3755,8.5462e-05,1.073e-05,0.0,0 STARLINK-3954,1 52558U 22051AB  23145.87982678  .00001073  00000-0  85462-4 0  9995,2 52558  53.2173  12.7334 0001211  96.7375 263.3755 15.08844309 57779,6917.867,95.437,540.57,538.894,0.0
52558.0,STARLINK-3954,PAYLOAD,2023-05-25 22:42:20,15.08844581,0.000125,53.2172,12.4363,96.6139,263.4995,0.0001279,1.748e-05,0.0,0 STARLINK-3954,1 52558U 22051AB  23145.94606684  .00001748  00000-0  12790-3 0  9995,2 52558  53.2172  12.4363 0001250  96.6139 263.4995 15.08844581 57855,6917.866,95.437,540.596,538.867,0.0
52558.0,STARLINK-3954,PAYLOAD,2023-05-26 19:22:21,15.08832197,0.0001395,53.2159,8.5724,133.7104,226.4004,0.00010854,1.44e-05,0.0,0 STARLINK-3954,1 52558U 22051AB  23146.80719336  .00001440  00000-0  10854-3 0  9998,2 52558  53.2159   8.5724 0001395 133.7104 226.4004 15.08832197 57986,6917.904,95.438,540.734,538.804,0.0
52558.0,STARLINK-3954,PAYLOAD,2023-05-26 20:57:44,15.08837531,0.0001143,53.2162,8.2745,121.5218,238.5886,-1.9671e-05,-6.01e-06,0.0,0 STARLINK-3954,1 52558U 22051AB  23146.87343115 -.00000601  00000-0 -19671-4 0  9990,2 52558  53.2162   8.2745 0001143 121.5218 238.5886 15.08837531 57925,6917.888,95.438,540.544,538.962,0.0
52558.0,STARLINK-3954,PAYLOAD,2023-05-27 20:48:31,15.08848244,0.0001089,53.2175,3.8142,85.2431,274.8686,0.00013589,1.876e-05,0.0,0 STARLINK-3954,1 52558U 22051AB  23147.86702621  .00001876  00000-0  13589-3 0  9995,2 52558  53.2175   3.8142 0001089  85.2431 274.8686 15.08848244 58142,6917.855,95.437,540.474,538.967,0.0
52558.0,STARLINK-3954,PAYLOAD,2023-05-27 23:59:17,15.08851063,0.0001123,53.2176,3.219,86.7196,273.3925,0.00015576,2.193e-05,0.0,0 STARLINK-3954,1 52558U 22051AB  23147.99950349  .00002193  00000-0  15576-3 0  9992,2 52558  53.2176   3.2190 0001123  86.7196 273.3925 15.08851063 58090,6917.847,95.437,540.488,538.935,0.0
52558.0,STARLINK-3954,PAYLOAD,2023-05-28 20:39:17,15.08849832,0.0001139,53.2179,359.3518,93.5214,266.5908,0.00016673,2.367e-05,0.0,0 STARLINK-3954,1 52558U 22051AB  23148.86062312  .00002367  00000-0  16673-3 0  9995,2 52558  53.2179 359.3518 0001139  93.5214 266.5908 15.08849832 58227,6917.85,95.437,540.503,538.927,0.0
52558.0,STARLINK-3954,PAYLOAD,2023-05-28 23:50:03,15.08851289,0.0001143,53.2179,358.757,93.2668,266.8455,0.00017582,2.512e-05,0.0,0 STARLINK-3954,1 52558U 22051AB  23148.99310157  .00002512  00000-0  17582-3 0  9994,2 52558  53.2179 358.7570 0001143  93.2668 266.8455 15.08851289 58312,6917.846,95.437,540.502,538.92,0.0
52558.0,STARLINK-3954,PAYLOAD,2023-05-29 14:08:33,15.08837686,0.0001261,53.2176,356.0766,105.6755,254.4377,-1.2449e-05,-4.86e-06,0.0,0 STARLINK-3954,1 52558U 22051AB  23149.58927125 -.00000486  00000-0 -12449-4 0  9997,2 52558  53.2176 356.0766 0001261 105.6755 254.4377 15.08837686 58336,6917.887,95.438,540.625,538.88,0.0
52558.0,STARLINK-3954,PAYLOAD,2023-05-29 17:19:19,15.08838246,0.0001235,53.2176,355.4816,110.6218,249.4907,1.6984e-05,-1.8e-07,0.0,0 STARLINK-3954,1 52558U 22051AB  23149.72175327 -.00000018  00000-0  16984-4 0  9990,2 52558  53.2176 355.4816 0001235 110.6218 249.4907 15.08838246 58422,6917.886,95.438,540.605,538.896,0.0
52558.0,STARLINK-3954,PAYLOAD,2023-05-29 20:30:05,15.08839792,0.0001116,53.2178,354.8909,83.5518,276.5601,-2.5047e-05,-6.86e-06,0.0,0 STARLINK-3954,1 52558U 22051AB  23149.85423335 -.00000686  00000-0 -25047-4 0  9991,2 52558  53.2178 354.8909 0001116  83.5518 276.5601 15.08839792 58372,6917.881,95.438,540.518,538.974,0.0
